IXPE                    
1 49954U 21121A   23320.07191961  .00004781  00000+0  35005-3 0  9997
2 49954   0.2294 179.3798 0010229 345.7656 194.8842 14.95486221105783
